[{"OBJECT_NAME":"KUIPER-00100","OBJECT_ID":"2025-171H","EPOCH":"2026-03-09T09:58:06.812832","MEAN_MOTION":14.79932266,"ECCENTRICITY":7.118e-5,"INCLINATION":51.9003,"RA_OF_ASC_NODE":151.7659,"ARG_OF_PERICENTER":64.8325,"MEAN_ANOMALY":295.2711,"EPHEMERIS_TYPE":0,"CLASSIFICATION_TYPE":"U","NORAD_CAT_ID":65139,"ELEMENT_SET_NO":999,"REV_AT_EPOCH":3295,"BSTAR":0.00015281348,"MEAN_MOTION_DOT":9.44e-6,"MEAN_MOTION_DDOT":0},{"OBJECT_NAME":"CZ-6A DEB","OBJECT_ID":"2024-140LW","EPOCH":"2026-03-09T14:27:00.355680","MEAN_MOTION":14.60018966,"ECCENTRICITY":0.0091079,"INCLINATION":89.0455,"RA_OF_ASC_NODE":285.491,"ARG_OF_PERICENTER":229.7654,"MEAN_ANOMALY":129.5566,"EPHEMERIS_TYPE":0,"CLASSIFICATION_TYPE":"U","NORAD_CAT_ID":60971,"ELEMENT_SET_NO":999,"REV_AT_EPOCH":8256,"BSTAR":0.00098681,"MEAN_MOTION_DOT":5.036e-5,"MEAN_MOTION_DDOT":0}]
